{
"type": "FeatureCollection",
"name": "Cone28Nov",
"crs": { "type": "name", "properties": { "name": "urn:ogc:def:crs:OGC:1.3:CRS84" } },
"features": [
{ "type": "Feature", "properties": { }, "geometry": { "type": "Polygon", "coordinates": [ [ [ 80.297568493150706, 15.559914383561631 ], [ 80.041361301369875, 15.498424657534235 ], [ 79.750993150684948, 15.402773972602727 ], [ 79.556275684931521, 15.313955479452042 ], [ 79.310316780821935, 15.136318493150673 ], [ 79.050693493150703, 14.893775684931494 ], [ 78.900385273972617, 14.702474315068482 ], [ 78.743244863013715, 14.456515410958893 ], [ 78.668090753424678, 14.265214041095879 ], [ 78.586104452054812, 13.995342465753414 ], [ 78.555359589041117, 13.780128424657523 ], [ 78.541695205479471, 13.342868150684922 ], [ 78.562191780821934, 12.950017123287662 ], [ 78.627097602739752, 12.509340753424647 ], [ 78.726164383561667, 12.171147260273962 ], [ 78.963583047945221, 11.646776541095875 ], [ 79.084854452054813, 11.320539383561629 ], [ 79.598122859589054, 10.298272688356148 ], [ 79.843227739726061, 9.761091609589027 ], [ 80.164340753424696, 9.064208047945192 ], [ 80.437628424657547, 8.510800513698621 ], [ 80.663090753424669, 8.210184075342458 ], [ 80.943210616438364, 7.919815924657526 ], [ 81.223330479452059, 7.667024828767116 ], [ 81.544443493150695, 7.434730308219171 ], [ 81.601663099315076, 7.401423373287665 ], [ 81.662298801369872, 7.392029109589035 ], [ 81.693897688356174, 7.388613013698624 ], [ 81.72208047945206, 7.39032106164383 ], [ 81.745993150684939, 7.394591181506843 ], [ 81.774175941780825, 7.400569349315062 ], [ 81.792964469178088, 7.410817636986295 ], [ 81.806628852739735, 7.41850385273972 ], [ 81.82627140410959, 7.439854452054788 ], [ 81.839935787671237, 7.470599315068487 ], [ 81.843351883561652, 7.482555650684925 ], [ 81.848476027397268, 7.533797089041089 ], [ 81.846767979452054, 7.56625 ], [ 81.78869434931508, 7.692645547945199 ], [ 81.747701198630139, 7.747303082191774 ], [ 81.705, 7.836121575342456 ], [ 81.706708047945256, 7.926648116438346 ], [ 81.653758561643883, 8.382696917808207 ], [ 81.563232020547986, 10.203476027397247 ], [ 81.699875856164425, 10.729554794520528 ], [ 81.804066780821955, 11.296626712328742 ], [ 81.829687500000048, 11.535753424657509 ], [ 81.831395547945249, 11.61432363013696 ], [ 81.879220890411005, 11.672397260273947 ], [ 82.234494863013751, 12.077204623287644 ], [ 82.371138698630176, 12.302666952054766 ], [ 82.514614726027446, 12.555458047945177 ], [ 82.664922945205518, 12.89365154109586 ], [ 82.740077054794568, 13.293334760273941 ], [ 82.705916095890444, 13.870654965753385 ], [ 82.528279109589079, 14.389901541095849 ], [ 82.159340753424686, 14.915980308219135 ], [ 81.674255136986332, 15.298583047945161 ], [ 81.283112157534276, 15.462555650684882 ], [ 80.828771404109659, 15.539417808219133 ], [ 80.605017123287752, 15.561622431506805 ], [ 80.297568493150706, 15.559914383561631 ] ] ] } }
]
}
